BEIDOU 3 (C01)          
1 36287U 10001A   21153.59077147 -.00000288  00000-0  00000-0 0  9999
2 36287   1.8532  45.9241 0005419  73.7609 124.7058  1.00272538 41700
BEIDOU 5 (C06)          
1 36828U 10036A   21153.47271384 -.00000056  00000-0  00000-0 0  9997
2 36828  54.1745 179.7310 0113442 235.3631 125.1045  1.00265542 39769
BEIDOU 6 (C04)          
1 37210U 10057A   21153.62651103 -.00000120  00000-0  00000-0 0  9996
2 37210   0.8259  45.9417 0003119 117.7960 113.0748  1.00270977 38822
BEIDOU 7 (C07)          
1 37256U 10068A   21153.02303943 -.00000234  00000-0  00000-0 0  9994
2 37256  50.8900 294.1826 0084593 215.2432 228.0156  1.00259030 38338
BEIDOU 8 (C08)          
1 37384U 11013A   21153.02514013 -.00000225  00000-0  00000-0 0  9999
2 37384  59.7574  58.0613 0052148 206.2535 113.1457  1.00258010 37201
BEIDOU 9 (C09)          
1 37763U 11038A   21153.42469171 -.00000033  00000-0  00000-0 0  9992
2 37763  54.4615 182.1750 0083324 226.5490  90.8982  1.00268152 36184
BEIDOU 10 (C10)         
1 37948U 11073A   21153.49571214 -.00000164  00000-0  00000-0 0  9990
2 37948  50.9921 293.7918 0071831 213.6418  15.5921  1.00257064 34941
BEIDOU 11 (C05)         
1 38091U 12008A   21153.61896487  .00000050  00000-0  00000-0 0  9998
2 38091   1.5235  67.6277 0008520 333.5745 131.6459  1.00268100 34025
BEIDOU 12 (C11)         
1 38250U 12018A   21153.25655866 -.00000106  00000-0  00000+0 0  9992
2 38250  56.7547   6.1130 0020252 249.5979 295.6451  1.86234409 62008
BEIDOU 13 (C12)         
1 38251U 12018B   21153.18799481 -.00000106  00000-0  00000-0 0  9998
2 38251  56.6750   5.4649 0011181 254.5433 289.1388  1.86234256 62000
BEIDOU 15 (C14)         
1 38775U 12050B   21153.41938179  .00000048  00000-0  00000-0 0  9994
2 38775  55.2027 124.4890 0016199 317.4744 218.7437  1.86232364 59389
BEIDOU 16 (C02)         
1 38953U 12059A   21153.65406774 -.00000181  00000-0  00000-0 0  9997
2 38953   1.9351  84.7291 0008432 294.4942 191.5621  1.00268915 31596
BEIDOU 17 (C31)         
1 40549U 15019A   21153.56512608 -.00000186  00000-0  00000-0 0  9999
2 40549  52.5217 317.1588 0037813 186.6456  47.2692  1.00269081 22626
BEIDOU 18 (C57)         
1 40748U 15037A   21153.33472797 -.00000106  00000-0  00000+0 0  9990
2 40748  55.9363   4.5563 0005254  27.2004 164.7516  1.86233363 39838
BEIDOU 19 (C58)         
1 40749U 15037B   21153.15362735 -.00000107  00000-0  00000-0 0  9993
2 40749  55.9431   4.5504 0004857 346.4643 220.2518  1.86232290 39820
BEIDOU 20 (C18)         
1 40938U 15053A   21153.43115806 -.00000164  00000-0  00000-0 0  9990
2 40938  52.0869 280.2312 0046649 191.2020  30.3345  1.00286759 20893
BEIDOU IGSO-6 (C13)     
1 41434U 16021A   21153.49671896 -.00000191  00000-0  00000-0 0  9990
2 41434  57.5416  56.8002 0038262 215.1788 254.8285  1.00272384 19023
BEIDOU-2 G7 (C03)       
1 41586U 16037A   21153.55150948 -.00000362  00000-0  00000-0 0  9992
2 41586   1.6708  66.7444 0009505  16.4905 117.0366  1.00276710 18336
BEIDOU-3 M1 (C19)       
1 43001U 17069A   21153.30523998  .00000049  00000-0  00000-0 0  9995
2 43001  55.3557 124.4436 0012416 291.0160 324.7577  1.86231814 24316
BEIDOU-3 M2 (C20)       
1 43002U 17069B   21153.46882245  .00000049  00000-0  00000-0 0  9996
2 43002  55.3556 124.4721 0010919 308.1323 100.8188  1.86231394 24314
BEIDOU-3 M3 (C27)       
1 43107U 18003A   21153.38878434 -.00000108  00000-0  00000-0 0  9994
2 43107  55.3819   5.6427 0005777  47.9287 113.2317  1.86232550 23077
BEIDOU-3 M4 (C28)       
1 43108U 18003B   21153.35515544 -.00000108  00000-0  00000-0 0  9992
2 43108  55.3736   5.6328 0001878 253.4089 290.3801  1.86232496 23072
BEIDOU-3 M5 (C21)       
1 43207U 18018A   21152.99123127  .00000048  00000-0  00000-0 0  9991
2 43207  55.3158 124.5805 0008176 323.5878  36.3268  1.86231693 22458
BEIDOU-3 M6 (C22)       
1 43208U 18018B   21153.05791329  .00000048  00000-0  00000-0 0  9995
2 43208  55.3158 124.5836 0010437 300.6938  59.1754  1.86231502 22451
BEIDOU-3 M7 (C29)       
1 43245U 18029A   21153.23534159 -.00000107  00000-0  00000-0 0  9991
2 43245  55.3131   3.4399 0001438  41.0381 287.4304  1.86232639 21606
BEIDOU-3 M8 (C30)       
1 43246U 18029B   21153.40428200 -.00000107  00000-0  10000-3 0  9994
2 43246  55.3124   3.4629 0004679   5.7994 122.0937  1.86232551 21601
BEIDOU IGSO-7 (C16)     
1 43539U 18057A   21152.87142269 -.00000084  00000-0  00000-0 0  9998
2 43539  55.0548 179.0941 0038737 222.8731 276.0218  1.00273827 10699
BEIDOU-3 M9 (C23)       
1 43581U 18062A   21153.39309451 -.00000050  00000-0  00000-0 0  9990
2 43581  54.4075 245.1135 0003701 263.1755  67.2806  1.86231898 19341
BEIDOU-3 M10 (C24)      
1 43582U 18062B   21153.29654660 -.00000050  00000-0  00000-0 0  9995
2 43582  54.4075 245.1067 0004126 356.6951   0.3604  1.86232071 19342
BEIDOU-3 M11 (C25)      
1 43602U 18067A   21153.31099167 -.00000048  00000-0  00000-0 0  9998
2 43602  54.4828 243.6903 0006467 359.2107  49.7738  1.86231739 18844
BEIDOU-3 M12 (C26)      
1 43603U 18067B   21153.49441072 -.00000049  00000-0  00000-0 0  9995
2 43603  54.4791 243.6491 0003771 345.8272  96.5968  1.86231638 18860
BEIDOU-3 M13 (C32)      
1 43622U 18072A   21153.48424763  .00000048  00000-0  00000-0 0  9997
2 43622  55.2807 124.1326 0008684 289.4563 176.2723  1.86231645 18371
BEIDOU-3 M14 (C33)      
1 43623U 18072B   21153.46448161  .00000048  00000-0  00000+0 0  9993
2 43623  55.2795 124.1285 0006950 308.1236 234.5874  1.86231683 18379
BEIDOU-3 M15 (C34)      
1 43647U 18078A   21153.30293046 -.00000107  00000-0  10000-3 0  9990
2 43647  55.2079   3.6257 0006891   6.6698 322.9633  1.86232743 17873
BEIDOU-3 M16 (C35)      
1 43648U 18078B   21153.21431575 -.00000107  00000-0  10000-3 0  9992
2 43648  55.2044   3.6362 0005267  19.7818 158.9297  1.86232239 17893
BEIDOU-3 G1 (C59)       
1 43683U 18085A   21153.51387997 -.00000286  00000-0  00000-0 0  9994
2 43683   1.0761 228.9871 0002784 352.3310 354.8511  1.00268023  9598
BEIDOU-3 M17 (C36)      
1 43706U 18093A   21153.10156215 -.00000048  00000-0  00000+0 0  9996
2 43706  54.4869 244.9816 0009969 266.2213  93.7033  1.86231899 17243
BEIDOU-3 M18 (C37)      
1 43707U 18093B   21153.36337053 -.00000050  00000-0  00000-0 0  9990
2 43707  54.4886 244.9622 0007819 292.6692 333.6317  1.86232133 17247
BEIDOU-3 IGSO-1 (C38)   
1 44204U 19023A   21153.02965582 -.00000238  00000-0  00000-0 0  9992
2 44204  56.0000  57.0843 0018468 193.3381 121.5528  1.00299785  7898
BEIDOU-2 G8             
1 44231U 19027A   21153.61187788 -.00000254  00000-0  00000-0 0  9993
2 44231   0.2827 343.9055 0005437 201.3917  70.8330  1.00273723  7616
BEIDOU-3 IGSO-2 (C39)   
1 44337U 19035A   21153.22947831 -.00000067  00000-0  00000-0 0  9991
2 44337  55.0895 175.1321 0020263 192.8053  72.3856  1.00285915  7230
BEIDOU-3 M23 (C45)      
1 44542U 19061A   21153.43176544 -.00000050  00000-0  10000-3 0  9992
2 44542  54.7122 245.0383 0007641 325.0620 300.1740  1.86231042 11502
BEIDOU-3 M24 (C46)      
1 44543U 19061B   21153.56677863 -.00000050  00000-0  10000-3 0  9997
2 44543  54.7114 245.0032 0004749 314.8431 311.7543  1.86231643 11514
BEIDOU-3 IGSO-3         
1 44709U 19073A   21152.84216009 -.00000185  00000-0  00000-0 0  9990
2 44709  57.8737 300.3160 0019223 197.7532 162.5171  1.00280348  5999
BEIDOU-3 M21            
1 44793U 19078A   21152.61351499 -.00000108  00000-0  10000-3 0  9995
2 44793  55.0569   3.7190 0006871  13.5541 168.3168  1.86232275 10358
BEIDOU-3 M22            
1 44794U 19078B   21153.28591089 -.00000108  00000-0  00000-0 0  9997
2 44794  55.0246   3.6948 0004969  11.2497 172.3933  1.86232852 10369
BEIDOU-3 M19            
1 44864U 19090A   21153.52800940  .00000048  00000-0  00000-0 0  9997
2 44864  55.2161 124.3630 0018095 269.8892 270.6704  1.86231914  9958
BEIDOU-3 M20            
1 44865U 19090B   21153.39754082  .00000048  00000-0  00000-0 0  9998
2 44865  55.2180 124.3978 0016952 283.0927 259.9149  1.86231908  9936
BEIDOU-3 G2             
1 45344U 20017A   21153.50199308 -.00000151  00000-0  00000-0 0  9995
2 45344   2.4511 336.1618 0004109 109.9505  65.8293  1.00269855  4818
BEIDOU-3 G3             
1 45807U 20040A   21153.50801236 -.00000362  00000-0  00000-0 0  9999
2 45807   2.3169 298.6077 0004426   9.5569 236.3628  1.00265994  3623
